[{"OBJECT_NAME":"STARLINK-30069","OBJECT_ID":"2023-079M","EPOCH":"2026-03-08T11:34:15.947328","MEAN_MOTION":15.26726881,"ECCENTRICITY":4.69e-5,"INCLINATION":42.9986,"RA_OF_ASC_NODE":110.4464,"ARG_OF_PERICENTER":272.6695,"MEAN_ANOMALY":87.4103,"EPHEMERIS_TYPE":0,"CLASSIFICATION_TYPE":"U","NORAD_CAT_ID":56834,"ELEMENT_SET_NO":999,"REV_AT_EPOCH":15274,"BSTAR":-8.0472e-5,"MEAN_MOTION_DOT":-2.416e-5,"MEAN_MOTION_DDOT":0},{"OBJECT_NAME":"STARLINK-31433","OBJECT_ID":"2024-049N","EPOCH":"2026-03-08T14:54:30.033216","MEAN_MOTION":15.27571687,"ECCENTRICITY":0.00013324,"INCLINATION":43.0018,"RA_OF_ASC_NODE":149.4846,"ARG_OF_PERICENTER":233.1987,"MEAN_ANOMALY":126.8743,"EPHEMERIS_TYPE":0,"CLASSIFICATION_TYPE":"U","NORAD_CAT_ID":59243,"ELEMENT_SET_NO":999,"REV_AT_EPOCH":11224,"BSTAR":-1.43934e-5,"MEAN_MOTION_DOT":-6.58e-6,"MEAN_MOTION_DDOT":0}]
